KUIPER-00112            
1 65150U 25171U   25330.91673611 -.00064372  00000+0 -57707-2 0  9991
2 65150  51.8928 250.7508 0008551 170.6066 109.1889 14.95543673  3954
KUIPER-00114            
1 65151U 25171V   25330.54037753 -.00004565  00000+0 -57035-3 0  9995
2 65151  51.8995 271.7318 0006474 121.6103 238.5492 14.79887179 17362
KUIPER-00115            
1 65152U 25171W   25330.54841185  .00006595  00000+0  89197-3 0  9995
2 65152  51.9004 264.1748 0010606 145.7000 214.4649 14.79972320 17475
KUIPER-00116            
1 65153U 25171X   25330.57685306  .00006330  00000+0  85780-3 0  9991
2 65153  51.8989 269.0967 0010667 111.4939 248.7162 14.79949583 17400
KUIPER-00118            
1 65154U 25171Y   25330.84419525  .00000126  00000+0  45641-4 0  9990
2 65154  51.8982 270.3642 0001955 117.4201 242.6960 14.79937036 17417
KUIPER-00119            
1 65155U 25171Z   25330.52017533  .00004437  00000+0  61011-3 0  9996
2 65155  51.8997 259.3847 0009170 135.8109 224.3587 14.79964608 17536
KUIPER-00120            
1 65762U 25217A   25330.91673611  .00044120  00000+0  42589-2 0  9990
2 65762  51.8930 147.7416 0016200 312.3512  98.9615 14.92331556  1301
KUIPER-00132            
1 65763U 25217B   25330.70982047  .00037673  00000+0  10297-2 0  9990
2 65763  51.8618 142.2581 0005751 318.1019  41.9527 15.37004415  9571
